STARLINK-2587
1 18399C 21038AY  21326.16428313  .00015809  00000-0  10594-2 0  3267
2 18399  53.0541 183.0054 0001777  75.3830 230.8051 15.06376858    11
